[{"OBJECT_NAME":"OBJECT A","OBJECT_ID":"2024-203A","EPOCH":"2026-03-09T23:31:20.812800","MEAN_MOTION":15.27300571,"ECCENTRICITY":0.00108989,"INCLINATION":97.4288,"RA_OF_ASC_NODE":139.5608,"ARG_OF_PERICENTER":322.6893,"MEAN_ANOMALY":37.3588,"EPHEMERIS_TYPE":0,"CLASSIFICATION_TYPE":"U","NORAD_CAT_ID":61869,"ELEMENT_SET_NO":999,"REV_AT_EPOCH":7380,"BSTAR":0.00061472876,"MEAN_MOTION_DOT":0.00016411,"MEAN_MOTION_DDOT":0},{"OBJECT_NAME":"STARLINK-32878","OBJECT_ID":"2025-024P","EPOCH":"2026-03-09T02:18:13.586976","MEAN_MOTION":15.27569647,"ECCENTRICITY":0.00027164,"INCLINATION":43.0033,"RA_OF_ASC_NODE":328.8511,"ARG_OF_PERICENTER":258.6168,"MEAN_ANOMALY":101.4379,"EPHEMERIS_TYPE":0,"CLASSIFICATION_TYPE":"U","NORAD_CAT_ID":62892,"ELEMENT_SET_NO":999,"REV_AT_EPOCH":6217,"BSTAR":0.00015335677,"MEAN_MOTION_DOT":3.959e-5,"MEAN_MOTION_DDOT":0}]
